{
    "CCSDS_OMM_VERS": "3.0",
    "COMMENT": "GENERATED VIA SPACE-TRACK.ORG API",
    "CREATION_DATE": "2025-11-19T03:20:49",
    "ORIGINATOR": "18 SPCS",
    "OBJECT_NAME": "COSMOS 2500 (GLONASS)",
    "OBJECT_ID": "2014-032A",
    "CENTER_NAME": "EARTH",
    "REF_FRAME": "TEME",
    "TIME_SYSTEM": "UTC",
    "MEAN_ELEMENT_THEORY": "SGP4",
    "EPOCH": "2025-11-18T08:15:13.436928",
    "MEAN_MOTION": "2.13106088",
    "ECCENTRICITY": "0.00087785",
    "INCLINATION": "65.3570",
    "RA_OF_ASC_NODE": "320.8625",
    "ARG_OF_PERICENTER": "217.7441",
    "MEAN_ANOMALY": "142.2149",
    "EPHEMERIS_TYPE": "0",
    "CLASSIFICATION_TYPE": "U",
    "NORAD_CAT_ID": "40001",
    "ELEMENT_SET_NO": "999",
    "REV_AT_EPOCH": "8896",
    "BSTAR": "0.00000000000000",
    "MEAN_MOTION_DOT": "-0.00000048",
    "MEAN_MOTION_DDOT": "0.0000000000000",
    "SEMIMAJOR_AXIS": "25507.698",
    "PERIOD": "675.720",
    "APOAPSIS": "19151.955",
    "PERIAPSIS": "19107.171",
    "OBJECT_TYPE": "PAYLOAD",
    "RCS_SIZE": "LARGE",
    "COUNTRY_CODE": "CIS",
    "LAUNCH_DATE": "2014-06-14",
    "SITE": "PKMTR",
    "DECAY_DATE": null,
    "FILE": "4888721",
    "GP_ID": "302940948",
    "TLE_LINE0": "0 COSMOS 2500 (GLONASS)",
    "TLE_LINE1": "1 40001U 14032A   25322.34390552 -.00000048  00000-0  00000-0 0  9993",
    "TLE_LINE2": "2 40001  65.3570 320.8625 0008778 217.7441 142.2149  2.13106088 88968"
}